NORAD_CAT_ID,OBJECT_NAME,OBJECT_TYPE,EPOCH,MEAN_MOTION,ECCENTRICITY,INCLINATION,RA_OF_ASC_NODE,ARG_OF_PERICENTER,MEAN_ANOMALY,BSTAR,MEAN_MOTION_DOT,MEAN_MOTION_DDOT,TLE_LINE0,TLE_LINE1,TLE_LINE2,SEMIMAJOR_AXIS,PERIOD,APOGEE,PERIGEE,DECAYED
50194.0,STARLINK-3269,PAYLOAD,2023-05-13 11:19:24,15.08845673,0.0001237,53.2151,188.4459,83.7016,276.4117,0.00016931,2.408e-05,0.0,0 STARLINK-3269,1 50194U 21125AQ  23133.47180590  .00002408  00000-0  16931-3 0  9993,2 50194  53.2151 188.4459 0001237  83.7016 276.4117 15.08845673 81100,6917.863,95.437,540.584,538.872,0.0
50194.0,STARLINK-3269,PAYLOAD,2023-05-13 20:51:43,15.08840402,0.000126,53.2151,186.6619,83.1689,276.9446,8.0298e-05,9.9e-06,0.0,0 STARLINK-3269,1 50194U 21125AQ  23133.86924861  .00000990  00000-0  80298-4 0  9995,2 50194  53.2151 186.6619 0001260  83.1689 276.9446 15.08840402 81165,6917.879,95.438,540.616,538.873,0.0
50194.0,STARLINK-3269,PAYLOAD,2023-05-14 07:59:25,15.08837323,0.0001354,53.2154,184.5812,83.8271,276.2876,-0.00010463,-1.953e-05,0.0,0 STARLINK-3269,1 50194U 21125AQ  23134.33293161 -.00001953  00000-0 -10463-3 0  9998,2 50194  53.2154 184.5812 0001354  83.8271 276.2876 15.08837323 80705,6917.889,95.438,540.69,538.817,0.0
50194.0,STARLINK-3269,PAYLOAD,2023-05-14 09:34:48,15.08833687,0.0001307,53.2153,184.2838,83.0902,277.0239,2.6065e-05,1.27e-06,0.0,0 STARLINK-3269,1 50194U 21125AQ  23134.39917422  .00000127  00000-0  26065-4 0  9993,2 50194  53.2153 184.2838 0001307  83.0902 277.0239 15.08833687 81241,6917.9,95.438,540.669,538.861,0.0
50194.0,STARLINK-3269,PAYLOAD,2023-05-14 20:42:30,15.08836096,0.0001308,53.2153,182.2018,83.0005,277.1136,4.0996e-05,3.65e-06,0.0,0 STARLINK-3269,1 50194U 21125AQ  23134.86285415  .00000365  00000-0  40996-4 0  9998,2 50194  53.2153 182.2018 0001308  83.0005 277.1136 15.08836096 81316,6917.892,95.438,540.662,538.852,0.0
50194.0,STARLINK-3269,PAYLOAD,2023-05-14 23:53:17,15.0877128,0.0001116,53.2156,181.6055,109.8871,250.2241,0.001022,0.00015984,0.0,0 STARLINK-3269,1 50194U 21125AQ  23134.99534680  .00015984  00000-0  10220-2 0  9991,2 50194  53.2156 181.6055 0001116 109.8871 250.2241 15.08771280 80803,6918.09,95.442,540.728,539.183,0.0
50194.0,STARLINK-3269,PAYLOAD,2023-05-15 06:14:49,15.08839823,0.0001263,53.2157,180.417,84.4847,275.6289,2.7644e-05,1.52e-06,0.0,0 STARLINK-3269,1 50194U 21125AQ  23135.26029320  .00000152  00000-0  27644-4 0  9993,2 50194  53.2157 180.4170 0001263  84.4847 275.6289 15.08839823 80848,6917.881,95.438,540.62,538.872,0.0
50194.0,STARLINK-3269,PAYLOAD,2023-05-15 09:25:35,15.08840482,0.0001219,53.2155,179.8207,91.1199,268.9933,2.7239e-05,1.46e-06,0.0,0 STARLINK-3269,1 50194U 21125AQ  23135.39277190  .00000146  00000-0  27239-4 0  9990,2 50194  53.2155 179.8207 0001219  91.1199 268.9933 15.08840482 81390,6917.879,95.438,540.587,538.901,0.0
50194.0,STARLINK-3269,PAYLOAD,2023-05-15 20:33:17,15.08840272,0.0001205,53.2156,177.7391,90.6431,269.4699,5.6896e-05,6.18e-06,0.0,0 STARLINK-3269,1 50194U 21125AQ  23135.85645092  .00000618  00000-0  56896-4 0  9996,2 50194  53.2156 177.7391 0001205  90.6431 269.4699 15.08840272 81460,6917.88,95.438,540.578,538.911,0.0
50194.0,STARLINK-3269,PAYLOAD,2023-05-16 07:40:59,15.08837502,0.0001199,53.2155,175.6578,89.4594,270.6536,0.00011765,1.585e-05,0.0,0 STARLINK-3269,1 50194U 21125AQ  23136.32013245  .00001585  00000-0  11765-3 0  9997,2 50194  53.2155 175.6578 0001199  89.4594 270.6536 15.08837502 81007,6917.888,95.438,540.582,538.924,0.0
50194.0,STARLINK-3269,PAYLOAD,2023-05-16 09:16:22,15.08838578,0.0001195,53.2155,175.3606,87.6284,272.4845,0.00012247,1.662e-05,0.0,0 STARLINK-3269,1 50194U 21125AQ  23136.38637195  .00001662  00000-0  12247-3 0  9991,2 50194  53.2155 175.3606 0001195  87.6284 272.4845 15.08838578 81544,6917.885,95.438,540.576,538.923,0.0
50194.0,STARLINK-3269,PAYLOAD,2023-05-17 18:39:28,15.08838908,0.0001192,53.2156,169.1165,84.3047,275.8081,3.4208e-05,2.57e-06,0.0,0 STARLINK-3269,1 50194U 21125AQ  23137.77741391  .00000257  00000-0  34208-4 0  9990,2 50194  53.2156 169.1165 0001192  84.3047 275.8081 15.08838908 81225,6917.884,95.438,540.573,538.924,0.0
50194.0,STARLINK-3269,PAYLOAD,2023-05-18 08:57:56,15.08836201,0.0001173,53.2159,166.4401,92.1283,267.9843,6.669e-06,-1.82e-06,0.0,0 STARLINK-3269,1 50194U 21125AQ  23138.37357617 -.00000182  00000-0  66690-5 0  9990,2 50194  53.2159 166.4401 0001173  92.1283 267.9843 15.08836201 81849,6917.892,95.438,540.568,538.946,0.0
50194.0,STARLINK-3269,PAYLOAD,2023-05-18 18:30:15,15.0883682,0.0001125,53.2158,164.6556,90.7164,269.3957,1.5782e-05,-3.7e-07,0.0,0 STARLINK-3269,1 50194U 21125AQ  23138.77101590 -.00000037  00000-0  15782-4 0  9995,2 50194  53.2158 164.6556 0001125  90.7164 269.3957 15.08836820 81904,6917.89,95.438,540.533,538.977,0.0
50194.0,STARLINK-3269,PAYLOAD,2023-05-19 07:13:20,15.088389,0.0001089,53.2156,162.2765,88.749,271.3627,3.4892e-05,2.68e-06,0.0,0 STARLINK-3269,1 50194U 21125AQ  23139.30093473  .00000268  00000-0  34892-4 0  9993,2 50194  53.2156 162.2765 0001089  88.7490 271.3627 15.08838900 81454,6917.884,95.438,540.502,538.995,0.0
50194.0,STARLINK-3269,PAYLOAD,2023-05-19 18:21:02,15.08837595,0.0001131,53.216,160.1952,88.7463,271.3659,3.8116e-05,3.19e-06,0.0,0 STARLINK-3269,1 50194U 21125AQ  23139.76461578  .00000319  00000-0  38116-4 0  9998,2 50194  53.2160 160.1952 0001131  88.7463 271.3659 15.08837595 82053,6917.888,95.438,540.535,538.97,0.0
50194.0,STARLINK-3269,PAYLOAD,2023-05-20 08:39:31,15.08838096,0.0001097,53.2157,157.5184,86.3774,273.7343,5.9186e-05,6.54e-06,0.0,0 STARLINK-3269,1 50194U 21125AQ  23140.36077639  .00000654  00000-0  59186-4 0  9999,2 50194  53.2157 157.5184 0001097  86.3774 273.7343 15.08838096 81610,6917.886,95.438,540.51,538.992,0.0
50194.0,STARLINK-3269,PAYLOAD,2023-05-20 18:11:49,15.08840868,0.0001133,53.2161,155.7342,86.594,273.5182,7.7543e-05,9.47e-06,0.0,0 STARLINK-3269,1 50194U 21125AQ  23140.75821447  .00000947  00000-0  77543-4 0  9998,2 50194  53.2161 155.7342 0001133  86.5940 273.5182 15.08840868 82204,6917.878,95.437,540.527,538.959,0.0
50194.0,STARLINK-3269,PAYLOAD,2023-05-21 08:30:17,15.08844134,0.0001123,53.2162,153.058,86.9691,273.1429,7.2267e-05,8.63e-06,0.0,0 STARLINK-3269,1 50194U 21125AQ  23141.35437230  .00000863  00000-0  72267-4 0  9993,2 50194  53.2162 153.0580 0001123  86.9691 273.1429 15.08844134 82295,6917.868,95.437,540.51,538.956,0.0
50194.0,STARLINK-3269,PAYLOAD,2023-05-21 18:02:36,15.08840705,0.000112,53.2162,151.2739,86.3531,273.7589,4.3453e-05,4.04e-06,0.0,0 STARLINK-3269,1 50194U 21125AQ  23141.75181488  .00000404  00000-0  43453-4 0  9994,2 50194  53.2162 151.2739 0001120  86.3531 273.7589 15.08840705 81826,6917.878,95.438,540.518,538.968,0.0
50194.0,STARLINK-3269,PAYLOAD,2023-05-22 06:45:42,15.08838429,0.0001146,53.2163,148.8953,86.4387,273.6736,3.5303e-05,2.74e-06,0.0,0 STARLINK-3269,1 50194U 21125AQ  23142.28173747  .00000274  00000-0  35303-4 0  9992,2 50194  53.2163 148.8953 0001146  86.4387 273.6736 15.08838429 82436,6917.885,95.438,540.543,538.957,0.0
50194.0,STARLINK-3269,PAYLOAD,2023-05-22 17:53:24,15.08839814,0.0001125,53.2162,146.8137,86.7754,273.3366,3.1788e-05,2.18e-06,0.0,0 STARLINK-3269,1 50194U 21125AQ  23142.74541691  .00000218  00000-0  31788-4 0  9991,2 50194  53.2162 146.8137 0001125  86.7754 273.3366 15.08839814 82508,6917.881,95.438,540.524,538.968,0.0
50194.0,STARLINK-3269,PAYLOAD,2023-05-23 00:14:56,15.08841272,0.000111,53.2162,145.6241,86.7234,273.3885,4.404e-05,4.13e-06,0.0,0 STARLINK-3269,1 50194U 21125AQ  23143.01037545  .00000413  00000-0  44040-4 0  9992,2 50194  53.2162 145.6241 0001110  86.7234 273.3885 15.08841272 82011,6917.877,95.437,540.509,538.974,0.0
50194.0,STARLINK-3269,PAYLOAD,2023-05-23 06:36:28,15.08842535,0.0001122,53.2163,144.4339,91.6556,268.4564,4.3855e-05,4.1e-06,0.0,0 STARLINK-3269,1 50194U 21125AQ  23143.27533431  .00000410  00000-0  43855-4 0  9995,2 50194  53.2163 144.4339 0001122  91.6556 268.4564 15.08842535 82586,6917.873,95.437,540.514,538.961,0.0
50194.0,STARLINK-3269,PAYLOAD,2023-05-24 09:38:02,15.08838286,0.0001068,53.2164,139.3789,90.1109,270.0006,5.8208e-05,6.39e-06,0.0,0 STARLINK-3269,1 50194U 21125AQ  23144.40141751  .00000639  00000-0  58208-4 0  9992,2 50194  53.2164 139.3789 0001068  90.1109 270.0006 15.08838286 82225,6917.886,95.438,540.489,539.012,0.0
50194.0,STARLINK-3269,PAYLOAD,2023-05-26 04:33:27,15.08834951,0.0001039,53.216,131.35,88.2309,271.8802,1.6831e-05,-2e-07,0.0,0 STARLINK-3269,1 50194U 21125AQ  23146.18990344 -.00000020  00000-0  16831-4 0  9990,2 50194  53.2160 131.3500 0001039  88.2309 271.8802 15.08834951 82499,6917.896,95.438,540.48,539.042,0.0
50194.0,STARLINK-3269,PAYLOAD,2023-05-27 07:35:00,15.08839045,0.0001055,53.2163,126.2954,92.0333,268.078,3.4915e-05,2.68e-06,0.0,0 STARLINK-3269,1 50194U 21125AQ  23147.31598291  .00000268  00000-0  34915-4 0  9997,2 50194  53.2163 126.2954 0001055  92.0333 268.0780 15.08839045 82667,6917.883,95.438,540.478,539.018,0.0
50194.0,STARLINK-3269,PAYLOAD,2023-05-27 15:31:56,15.0883671,0.0001064,53.2165,124.8082,89.4258,270.6856,3.6351e-05,2.91e-06,0.0,0 STARLINK-3269,1 50194U 21125AQ  23147.64718491  .00000291  00000-0  36351-4 0  9991,2 50194  53.2165 124.8082 0001064  89.4258 270.6856 15.08836710 83245,6917.89,95.438,540.492,539.019,0.0
50194.0,STARLINK-3269,PAYLOAD,2023-05-28 05:50:25,15.08837237,0.0001065,53.2168,122.1332,89.8945,270.2169,5.4616e-05,5.81e-06,0.0,0 STARLINK-3269,1 50194U 21125AQ  23148.24334617  .00000581  00000-0  54616-4 0  9998,2 50194  53.2168 122.1332 0001065  89.8945 270.2169 15.08837237 83333,6917.889,95.438,540.491,539.017,0.0
50194.0,STARLINK-3269,PAYLOAD,2023-05-28 15:22:43,15.08838588,0.0001104,53.2169,120.3483,87.6613,272.4506,6.1361e-05,6.89e-06,0.0,0 STARLINK-3269,1 50194U 21125AQ  23148.64078576  .00000689  00000-0  61361-4 0  9995,2 50194  53.2169 120.3483 0001104  87.6613 272.4506 15.08838588 82869,6917.885,95.438,540.513,538.986,0.0
